[{"OBJECT_NAME":"STARLINK-31442","OBJECT_ID":"2024-098B","EPOCH":"2026-03-08T23:43:37.288128","MEAN_MOTION":15.27569616,"ECCENTRICITY":0.00012729,"INCLINATION":43.004,"RA_OF_ASC_NODE":285.8538,"ARG_OF_PERICENTER":275.8834,"MEAN_ANOMALY":84.1873,"EPHEMERIS_TYPE":0,"CLASSIFICATION_TYPE":"U","NORAD_CAT_ID":59859,"ELEMENT_SET_NO":999,"REV_AT_EPOCH":10169,"BSTAR":-1.6929042e-5,"MEAN_MOTION_DOT":-7.28e-6,"MEAN_MOTION_DDOT":0},{"OBJECT_NAME":"FLOCK 4G-17","OBJECT_ID":"2025-009CA","EPOCH":"2026-03-09T22:51:51.984864","MEAN_MOTION":15.27385439,"ECCENTRICITY":0.00036407,"INCLINATION":97.3966,"RA_OF_ASC_NODE":151.0229,"ARG_OF_PERICENTER":339.6132,"MEAN_ANOMALY":20.4962,"EPHEMERIS_TYPE":0,"CLASSIFICATION_TYPE":"U","NORAD_CAT_ID":62681,"ELEMENT_SET_NO":999,"REV_AT_EPOCH":12139,"BSTAR":0.00053710713,"MEAN_MOTION_DOT":0.00014342,"MEAN_MOTION_DDOT":0}]
